{"epoch":1784710044,"count":18256,"objects":[{"id":"48216","name":"ONEWEB-0198","type":"PAYLOAD","l1":"1 48216U 21031G   26202.25135397 -.00000182  00000-0 -52490-3 0  9991","l2":"2 48216  87.8951 282.9214 0002512  96.6308 263.5107 13.14503436252969"},{"id":"48217","name":"ONEWEB-0189","type":"PAYLOAD","l1":"1 48217U 21031H   26202.26390556 -.00000171  00000-0 -49667-3 0  9993","l2":"2 48217  87.8966 282.9095 0002367  97.6325 262.5074 13.14502681252706"},{"id":"48218","name":"ONEWEB-0196","type":"PAYLOAD","l1":"1 48218U 21031J   26202.24170256 -.00000069  00000-0 -21936-3 0  9990","l2":"2 48218  87.8965 282.9221 0002170  96.8091 263.3286 13.14502993252700"},{"id":"48219","name":"ONEWEB-0183","type":"PAYLOAD","l1":"1 48219U 21031K   26202.52080229  .00000300  00000-0  77468-3 0  9999","l2":"2 48219  87.8962 282.8640 0001880  93.9944 266.1401 13.14503155252839"},{"id":"48220","name":"ONEWEB-0185","type":"PAYLOAD","l1":"1 48220U 21031L   26202.62306754 -.00000120  00000-0 -35741-3 0  9996","l2":"2 48220  87.8969 282.8396 0002066  86.9359 273.2007 13.14501122252771"},{"id":"48221","name":"ONEWEB-0187","type":"PAYLOAD","l1":"1 48221U 21031M   26202.52700017  .00000182  00000-0  45655-3 0  9997","l2":"2 48221  87.8963 282.8721 0002131  94.6606 265.4767 13.14503419252779"},{"id":"48222","name":"ONEWEB-0192","type":"PAYLOAD","l1":"1 48222U 21031N   26202.49701171 -.00000151  00000-0 -44189-3 0  9995","l2":"2 48222  87.8957 282.8681 0002133  99.7152 260.4219 13.14503189252683"},{"id":"48223","name":"ONEWEB-0219","type":"PAYLOAD","l1":"1 48223U 21031P   26202.24802749 -.00000244  00000-0 -69205-3 0  9991","l2":"2 48223  87.8971 282.9115 0002155  92.4076 267.7300 13.14502541252853"},{"id":"48224","name":"ONEWEB-0202","type":"PAYLOAD","l1":"1 48224U 21031Q   26202.45737544  .00000138  00000-0  33891-3 0  9997","l2":"2 48224  87.8966 282.8818 0002707 102.6649 257.4784 13.14503172252864"},{"id":"48225","name":"ONEWEB-0204","type":"PAYLOAD","l1":"1 48225U 21031R   26202.26310144 -.00000117  00000-0 -34918-3 0  9990","l2":"2 48225  87.8963 282.9149 0001688  90.0390 270.0934 13.14503264252736"},{"id":"48226","name":"ONEWEB-0205","type":"PAYLOAD","l1":"1 48226U 21031S   26202.46688058 -.00000021  00000-0 -91666-4 0  9993","l2":"2 48226  87.8973 282.8697 0002251  93.1764 266.9623 13.14502695252771"},{"id":"48227","name":"ONEWEB-0206","type":"PAYLOAD","l1":"1 48227U 21031T   26202.28768991  .00000144  00000-0  35435-3 0  9994","l2":"2 48227  87.8966 282.9053 0001902 102.6462 257.4880 13.14502014252702"},{"id":"48228","name":"ONEWEB-0182","type":"PAYLOAD","l1":"1 48228U 21031U   26202.51126736  .00000128  00000-0  30943-3 0  9997","l2":"2 48228  87.8961 282.8672 0001841  94.7466 265.3874 13.14504290252946"},{"id":"48229","name":"ONEWEB-0186","type":"PAYLOAD","l1":"1 48229U 21031V   26202.52238244  .00000266  00000-0  68257-3 0  9999","l2":"2 48229  87.8973 282.8588 0002080  96.2739 263.8628 13.14503490252897"},{"id":"48230","name":"ONEWEB-0181","type":"PAYLOAD","l1":"1 48230U 21031W   26202.27181928  .00000072  00000-0  15923-3 0  9996","l2":"2 48230  87.8953 282.9321 0002228  97.2766 262.8617 13.14502559252711"},{"id":"48231","name":"ONEWEB-0188","type":"PAYLOAD","l1":"1 48231U 21031X   26202.23376854  .00000082  00000-0  18621-3 0  9996","l2":"2 48231  87.8955 282.9391 0002062  97.7397 262.3967 13.14502768252616"},{"id":"48232","name":"ONEWEB-0220","type":"PAYLOAD","l1":"1 48232U 21031Y   26202.50180343  .00000687  00000-0  18172-2 0  9994","l2":"2 48232  87.8967 282.8641 0002104  91.7112 268.4258 13.14501708252919"},{"id":"48233","name":"ONEWEB-0165","type":"PAYLOAD","l1":"1 48233U 21031Z   26202.45419370  .00000093  00000-0  21577-3 0  9999","l2":"2 48233  87.8964 282.8841 0002413  98.2227 261.9177 13.14503670252863"},{"id":"48234","name":"ONEWEB-0199","type":"PAYLOAD","l1":"1 48234U 21031AA  26202.28610779  .00000180  00000-0  45222-3 0  9997","l2":"2 48234  87.8970 282.9053 0001855 101.8736 258.2602 13.14502619252743"},{"id":"48235","name":"ONEWEB-0203","type":"PAYLOAD","l1":"1 48235U 21031AB  26202.50494553  .00000088  00000-0  20289-3 0  9996","l2":"2 48235  87.8963 282.8645 0002121 103.6822 256.4544 13.14501751252780"},{"id":"48236","name":"ONEWEB-0197","type":"PAYLOAD","l1":"1 48236U 21031AC  26202.63165857 -.00000235  00000-0 -66788-3 0  9993","l2":"2 48236  87.8959 282.8222 0001903  91.1044 269.0304 13.14502954252714"},{"id":"48237","name":"ONEWEB-0194","type":"PAYLOAD","l1":"1 48237U 21031AD  26202.45893996  .00000092  00000-0  21365-3 0  9997","l2":"2 48237  87.8965 282.8806 0001970 105.3776 254.7572 13.14504104252867"},{"id":"48238","name":"ONEWEB-0193","type":"PAYLOAD","l1":"1 48238U 21031AE  26202.24645831 -.00000093  00000-0 -28587-3 0  9994","l2":"2 48238  87.8964 282.9130 0001910 111.0466 249.0868 13.14502884252781"},{"id":"48239","name":"ONEWEB-0191","type":"PAYLOAD","l1":"1 48239U 21031AF  26202.25753136 -.00000506  00000-0 -14001-2 0  9998","l2":"2 48239  87.8969 282.9120 0001915  94.9543 265.1806 13.14503335252644"},{"id":"48240","name":"ONEWEB-0195","type":"PAYLOAD","l1":"1 48240U 21031AG  26202.23457707 -.00000083  00000-0 -25831-3 0  9997","l2":"2 48240  87.8970 282.9167 0002415  98.7708 261.3695 13.14505704252624"},{"id":"48241","name":"ONEWEB-0201","type":"PAYLOAD","l1":"1 48241U 21031AH  26202.45115689  .00000272  00000-0  69953-3 0  9993","l2":"2 48241  87.8963 282.8874 0001945  90.2367 269.8986 13.14503140252882"},{"id":"48242","name":"ONEWEB-0207","type":"PAYLOAD","l1":"1 48242U 21031AJ  26202.50731279  .00000037  00000-0  65423-4 0  9997","l2":"2 48242  87.8964 282.8631 0001939  91.3478 268.7874 13.14501274252805"},{"id":"48243","name":"ONEWEB-0208","type":"PAYLOAD","l1":"1 48243U 21031AK  26202.26072624 -.00000492  00000-0 -13604-2 0  9992","l2":"2 48243  87.8950 282.9153 0002520  97.6815 262.4601 13.14504238252781"},{"id":"48244","name":"ONEWEB-0200","type":"PAYLOAD","l1":"1 48244U 21031AL  26202.52873465  .00000223  00000-0  56722-3 0  9993","l2":"2 48244  87.8975 282.8533 0002124  97.3509 262.7863 13.14502482252745"},{"id":"48245","name":"ONEWEB-0217","type":"PAYLOAD","l1":"1 48245U 21031AM  26202.46846435 -.00000053  00000-0 -17627-3 0  9998","l2":"2 48245  87.8974 282.8695 0002428  98.8966 261.2439 13.14503377252684"}]}