OBJECT_NAME,OBJECT_ID,EPOCH,MEAN_MOTION,ECCENTRICITY,INCLINATION,RA_OF_ASC_NODE,ARG_OF_PERICENTER,MEAN_ANOMALY,EPHEMERIS_TYPE,CLASSIFICATION_TYPE,NORAD_CAT_ID,ELEMENT_SET_NO,REV_AT_EPOCH,BSTAR,MEAN_MOTION_DOT,MEAN_MOTION_DDOT
ONEWEB-0198,2021-031G,2026-07-21T06:01:56.983008,13.14503436,.00025117,87.8951,282.9214,96.6308,263.5107,0,U,48216,999,25296,-.52490162E-3,-.182E-5,0
ONEWEB-0189,2021-031H,2026-07-21T06:20:01.440384,13.14502681,.00023666,87.8966,282.9095,97.6325,262.5074,0,U,48217,999,25270,-.49666551E-3,-.171E-5,0
ONEWEB-0196,2021-031J,2026-07-21T05:48:03.101184,13.14502993,.00021702,87.8965,282.9221,96.8091,263.3286,0,U,48218,999,25270,-.21935802E-3,-.69E-6,0
ONEWEB-0183,2021-031K,2026-07-21T12:29:57.317856,13.14503155,.00018803,87.8962,282.8640,93.9944,266.1401,0,U,48219,999,25283,.77468284E-3,.3E-5,0
ONEWEB-0185,2021-031L,2026-07-21T14:57:13.035456,13.14501122,.00020656,87.8969,282.8396,86.9359,273.2007,0,U,48220,999,25277,-.35740653E-3,-.12E-5,0
ONEWEB-0187,2021-031M,2026-07-21T12:38:52.814688,13.14503419,.00021308,87.8963,282.8721,94.6606,265.4767,0,U,48221,999,25277,.45654828E-3,.182E-5,0
ONEWEB-0192,2021-031N,2026-07-21T11:55:41.811744,13.14503189,.0002133,87.8957,282.8681,99.7152,260.4219,0,U,48222,999,25268,-.44188863E-3,-.151E-5,0
ONEWEB-0219,2021-031P,2026-07-21T05:57:09.575136,13.14502541,.00021554,87.8971,282.9115,92.4076,267.7300,0,U,48223,999,25285,-.69204866E-3,-.244E-5,0
ONEWEB-0202,2021-031Q,2026-07-21T10:58:37.238016,13.14503172,.00027068,87.8966,282.8818,102.6649,257.4784,0,U,48224,999,25286,.33890927E-3,.138E-5,0
ONEWEB-0204,2021-031R,2026-07-21T06:18:51.964416,13.14503264,.00016881,87.8963,282.9149,90.0390,270.0934,0,U,48225,999,25273,-.34917782E-3,-.117E-5,0
ONEWEB-0205,2021-031S,2026-07-21T11:12:18.482112,13.14502695,.00022507,87.8973,282.8697,93.1764,266.9623,0,U,48226,999,25277,-.91665655E-4,-.21E-6,0
ONEWEB-0206,2021-031T,2026-07-21T06:54:16.408224,13.14502014,.00019019,87.8966,282.9053,102.6462,257.4880,0,U,48227,999,25270,.35435481E-3,.144E-5,0
ONEWEB-0182,2021-031U,2026-07-21T12:16:13.499904,13.14504290,.0001841,87.8961,282.8672,94.7466,265.3874,0,U,48228,999,25294,.30942593E-3,.128E-5,0
ONEWEB-0186,2021-031V,2026-07-21T12:32:13.842816,13.14503490,.000208,87.8973,282.8588,96.2739,263.8628,0,U,48229,999,25289,.68256517E-3,.266E-5,0
ONEWEB-0181,2021-031W,2026-07-21T06:31:25.185792,13.14502559,.00022282,87.8953,282.9321,97.2766,262.8617,0,U,48230,999,25271,.15922724E-3,.72E-6,0
ONEWEB-0188,2021-031X,2026-07-21T05:36:37.601856,13.14502768,.0002062,87.8955,282.9391,97.7397,262.3967,0,U,48231,999,25261,.18621352E-3,.82E-6,0
ONEWEB-0220,2021-031Y,2026-07-21T12:02:35.816352,13.14501708,.00021039,87.8967,282.8641,91.7112,268.4258,0,U,48232,999,25291,.18172473E-2,.687E-5,0
ONEWEB-0165,2021-031Z,2026-07-21T10:54:02.335680,13.14503670,.00024126,87.8964,282.8841,98.2227,261.9177,0,U,48233,999,25286,.21576787E-3,.93E-6,0
ONEWEB-0199,2021-031AA,2026-07-21T06:51:59.713056,13.14502619,.00018553,87.8970,282.9053,101.8736,258.2602,0,U,48234,999,25274,.45222221E-3,.18E-5,0
ONEWEB-0203,2021-031AB,2026-07-21T12:07:07.293792,13.14501751,.00021213,87.8963,282.8645,103.6822,256.4544,0,U,48235,999,25278,.20288882E-3,.88E-6,0
ONEWEB-0197,2021-031AC,2026-07-21T15:09:35.300448,13.14502954,.0001903,87.8959,282.8222,91.1044,269.0304,0,U,48236,999,25271,-.66787963E-3,-.235E-5,0
ONEWEB-0194,2021-031AD,2026-07-21T11:00:52.412544,13.14504104,.00019705,87.8965,282.8806,105.3776,254.7572,0,U,48237,999,25286,.21364562E-3,.92E-6,0
ONEWEB-0193,2021-031AE,2026-07-21T05:54:53.997984,13.14502884,.00019097,87.8964,282.9130,111.0466,249.0868,0,U,48238,999,25278,-.28586934E-3,-.93E-6,0
ONEWEB-0191,2021-031AF,2026-07-21T06:10:50.709504,13.14503335,.00019147,87.8969,282.9120,94.9543,265.1806,0,U,48239,999,25264,-.14000908E-2,-.506E-5,0
ONEWEB-0195,2021-031AG,2026-07-21T05:37:47.458848,13.14505704,.00024152,87.8970,282.9167,98.7708,261.3695,0,U,48240,999,25262,-.25831098E-3,-.83E-6,0
ONEWEB-0201,2021-031AH,2026-07-21T10:49:39.955296,13.14503140,.00019452,87.8963,282.8874,90.2367,269.8986,0,U,48241,999,25288,.69952738E-3,.272E-5,0
ONEWEB-0207,2021-031AJ,2026-07-21T12:10:31.825056,13.14501274,.0001939,87.8964,282.8631,91.3478,268.7874,0,U,48242,999,25280,.65423389E-4,.37E-6,0
ONEWEB-0208,2021-031AK,2026-07-21T06:15:26.747136,13.14504238,.00025205,87.8950,282.9153,97.6815,262.4601,0,U,48243,999,25278,-.13603786E-2,-.492E-5,0
ONEWEB-0200,2021-031AL,2026-07-21T12:41:22.673760,13.14502482,.0002124,87.8975,282.8533,97.3509,262.7863,0,U,48244,999,25274,.56722335E-3,.223E-5,0
ONEWEB-0217,2021-031AM,2026-07-21T11:14:35.319840,13.14503377,.00024275,87.8974,282.8695,98.8966,261.2439,0,U,48245,999,25268,-.17626863E-3,-.53E-6,0
